CCSDS_OMM_VERS,COMMENT,CREATION_DATE,ORIGINATOR,OBJECT_NAME,OBJECT_ID,CENTER_NAME,REF_FRAME,TIME_SYSTEM,MEAN_ELEMENT_THEORY,EPOCH,MEAN_MOTION,ECCENTRICITY,INCLINATION,RA_OF_ASC_NODE,ARG_OF_PERICENTER,MEAN_ANOMALY,EPHEMERIS_TYPE,CLASSIFICATION_TYPE,NORAD_CAT_ID,ELEMENT_SET_NO,REV_AT_EPOCH,BSTAR,MEAN_MOTION_DOT,MEAN_MOTION_DDOT,SEMIMAJOR_AXIS,PERIOD,APOAPSIS,PERIAPSIS,OBJECT_TYPE,RCS_SIZE,COUNTRY_CODE,LAUNCH_DATE,SITE,DECAY_DATE,FILE,GP_ID,TLE_LINE0,TLE_LINE1,TLE_LINE2
"2.0","GENERATED VIA SPACE-TRACK.ORG API","2020-12-11T03:25:56","18 SPCS","CZ-4 DEB","1999-057SK","EARTH","TEME","UTC","SGP4","2020-12-10T19:15:32.951808","14.47089453","0.01154450","98.6943","5.2172","15.9194","156.1035","0","U","35331","999","36490","0.00029275000000","0.00001107","0.0000000000000","7113.307","99.510","817.292","653.053","DEBRIS","SMALL","PRC","1999-10-14","TSC","","2900834","167458965","0 CZ-4 DEB","1 35331U 99057SK  20345.80246472  .00001107  00000-0  29275-3 0  9999","2 35331  98.6943   5.2172 0115445  15.9194 156.1035 14.47089453364900"
"2.0","GENERATED VIA SPACE-TRACK.ORG API","2020-12-11T03:25:56","18 SPCS","ORBCOMM FM 30","1999-065A","EARTH","TEME","UTC","SGP4","2020-12-10T08:06:54.552960","14.32946172","0.00049900","45.0336","300.9484","43.2523","316.8715","0","U","25980","999","9758","0.00008861200000","0.00000104","0.0000000000000","7160.036","100.492","785.474","778.328","PAYLOAD","MEDIUM","ORB","1999-12-04","AFETR","","2900834","167452874","0 ORBCOMM FM 30","1 25980U 99065A   20345.33813140  .00000104  00000-0  88612-4 0  9994","2 25980  45.0336 300.9484 0004990  43.2523 316.8715 14.32946172 97585"
"2.0","GENERATED VIA SPACE-TRACK.ORG API","2020-12-10T12:36:10","18 SPCS","ORBCOMM FM 30","1999-065A","EARTH","TEME","UTC","SGP4","2020-12-10T08:06:54.552960","14.32946172","0.00049900","45.0336","300.9484","43.2523","316.8715","0","U","25980","999","9811","0.00008861200000","0.00000104","0.0000000000000","7160.036","100.492","785.474","778.328","PAYLOAD","MEDIUM","ORB","1999-12-04","AFETR","","2900454","167395053","0 ORBCOMM FM 30","1 25980U 99065A   20345.33813140  .00000104  00000-0  88612-4 0  9994","2 25980  45.0336 300.9484 0004990  43.2523 316.8715 14.32946172 98115"
"2.0","GENERATED VIA SPACE-TRACK.ORG API","2020-12-10T12:36:10","18 SPCS","CZ-4 DEB","1999-057SK","EARTH","TEME","UTC","SGP4","2020-12-10T07:06:15.177600","14.47088643","0.01154660","98.6944","4.6972","17.4477","37.7108","0","U","35331","999","94260","0.00030509000000","0.00001156","0.0000000000000","7113.310","99.510","817.309","653.040","DEBRIS","SMALL","PRC","1999-10-14","TSC","","2900429","167394204","0 CZ-4 DEB","1 35331U 99057SK  20345.29600900  .00001156  00000-0  30509-3 0  9998","2 35331  98.6944   4.6972 0115466  17.4477  37.7108 14.47088643942600"
"2.0","GENERATED VIA SPACE-TRACK.ORG API","2020-12-10T17:12:53","18 SPCS","ORBCOMM FM 30","1999-065A","EARTH","TEME","UTC","SGP4","2020-12-10T04:46:07.085568","14.32946124","0.00049970","45.0336","301.6037","42.4809","317.6423","0","U","25980","999","9756","0.00009011900000","0.00000108","0.0000000000000","7160.037","100.492","785.479","778.324","PAYLOAD","MEDIUM","ORB","1999-12-04","AFETR","","2900598","167404929","0 ORBCOMM FM 30","1 25980U 99065A   20345.19869312  .00000108  00000-0  90119-4 0  9999","2 25980  45.0336 301.6037 0004997  42.4809 317.6423 14.32946124 97562"
"2.0","GENERATED VIA SPACE-TRACK.ORG API","2020-12-09T17:52:09","18 SPCS","ORBCOMM FM 30","1999-065A","EARTH","TEME","UTC","SGP4","2020-12-09T08:41:22.271712","14.32945812","0.00050310","45.0337","305.5356","37.8391","322.2809","0","U","25980","999","9744","0.00009627900000","0.00000125","0.0000000000000","7160.038","100.492","785.505","778.300","PAYLOAD","MEDIUM","ORB","1999-12-04","AFETR","","2900048","167330920","0 ORBCOMM FM 30","1 25980U 99065A   20344.36206333 +.00000125 +00000-0 +96279-4 0  9997","2 25980 045.0337 305.5356 0005031 037.8391 322.2809 14.32945812097444"
"2.0","GENERATED VIA SPACE-TRACK.ORG API","2020-12-09T15:06:11","18 SPCS","ORBCOMM FM 30","1999-065A","EARTH","TEME","UTC","SGP4","2020-12-09T07:00:58.537152","14.32945767","0.00050310","45.0337","305.8633","37.4725","322.6472","0","U","25980","999","9796","0.00009579200000","0.00000123","0.0000000000000","7160.038","100.492","785.505","778.300","PAYLOAD","MEDIUM","ORB","1999-12-04","AFETR","","2899764","167294271","0 ORBCOMM FM 30","1 25980U 99065A   20344.29234418  .00000123  00000-0  95792-4 0  9991","2 25980  45.0337 305.8633 0005031  37.4725 322.6472 14.32945767 97968"
"2.0","GENERATED VIA SPACE-TRACK.ORG API","2020-12-09T02:27:26","18 SPCS","ORBCOMM FM 30","1999-065A","EARTH","TEME","UTC","SGP4","2020-12-08T09:15:49.966272","14.32945260","0.00050730","45.0337","310.1230","32.4721","327.6437","0","U","25980","999","9730","0.00008988000000","0.00000107","0.0000000000000","7160.039","100.492","785.537","778.272","PAYLOAD","MEDIUM","ORB","1999-12-04","AFETR","","2899603","167253587","0 ORBCOMM FM 30","1 25980U 99065A   20343.38599498  .00000107  00000-0  89880-4 0  9995","2 25980  45.0337 310.1230 0005073  32.4721 327.6437 14.32945260 97309"
"2.0","GENERATED VIA SPACE-TRACK.ORG API","2020-12-09T02:27:26","18 SPCS","CZ-4 DEB","1999-057SK","EARTH","TEME","UTC","SGP4","2020-12-08T06:58:54.077952","14.47083475","0.01155670","98.6946","2.6383","23.4919","32.0930","0","U","35331","999","36454","0.00026685000000","0.00001005","0.0000000000000","7113.327","99.510","817.398","652.985","DEBRIS","SMALL","PRC","1999-10-14","TSC","","2899603","167260188","0 CZ-4 DEB","1 35331U 99057SK  20343.29090368  .00001005  00000-0  26685-3 0  9990","2 35331  98.6946   2.6383 0115567  23.4919  32.0930 14.47083475364546"
"2.0","GENERATED VIA SPACE-TRACK.ORG API","2020-12-08T14:16:09","18 SPCS","CZ-4 DEB","1999-057SK","EARTH","TEME","UTC","SGP4","2020-12-08T06:58:54.077952","14.47083475","0.01155670","98.6946","2.6383","23.4919","32.0930","0","U","35331","999","94231","0.00026685000000","0.00001005","0.0000000000000","7113.327","99.510","817.398","652.985","DEBRIS","SMALL","PRC","1999-10-14","TSC","","2899405","167199516","0 CZ-4 DEB","1 35331U 99057SK  20343.29090368  .00001005  00000-0  26685-3 0  9990","2 35331  98.6946   2.6383 0115567  23.4919  32.0930 14.47083475942313"
"2.0","GENERATED VIA SPACE-TRACK.ORG API","2020-12-08T19:18:00","18 SPCS","ORBCOMM FM 30","1999-065A","EARTH","TEME","UTC","SGP4","2020-12-08T04:14:38.753952","14.32945152","0.00050780","45.0338","311.1059","31.3474","328.7675","0","U","25980","999","9727","0.00008886700000","0.00000104","0.0000000000000","7160.040","100.492","785.541","778.269","PAYLOAD","MEDIUM","ORB","1999-12-04","AFETR","","2899531","167208131","0 ORBCOMM FM 30","1 25980U 99065A   20343.17683743 +.00000104 +00000-0 +88867-4 0  9990","2 25980 045.0338 311.1059 0005078 031.3474 328.7675 14.32945152097270"
"2.0","GENERATED VIA SPACE-TRACK.ORG API","2020-12-08T06:36:10","18 SPCS","ORBCOMM FM 30","1999-065A","EARTH","TEME","UTC","SGP4","2020-12-08T02:34:15.013344","14.32945132","0.00050810","45.0338","311.4336","30.9627","329.1518","0","U","25980","999","9779","0.00008883200000","0.00000104","0.0000000000000","7160.040","100.492","785.543","778.267","PAYLOAD","MEDIUM","ORB","1999-12-04","AFETR","","2899206","167194733","0 ORBCOMM FM 30","1 25980U 99065A   20343.10711821  .00000104  00000-0  88832-4 0  9994","2 25980  45.0338 311.4336 0005081  30.9627 329.1518 14.32945132 97796"
"2.0","GENERATED VIA SPACE-TRACK.ORG API","2020-12-08T19:18:00","18 SPCS","CZ-4 DEB","1999-057SK","EARTH","TEME","UTC","SGP4","2020-12-07T21:19:42.080736","14.47082821","0.01155940","98.6947","2.2253","24.6907","96.7305","0","U","35331","999","36448","0.00027514000000","0.00001038","0.0000000000000","7113.329","99.510","817.420","652.968","DEBRIS","SMALL","PRC","1999-10-14","TSC","","2899531","167215240","0 CZ-4 DEB","1 35331U 99057SK  20342.88868149 +.00001038 +00000-0 +27514-3 0  9992","2 35331 098.6947 002.2253 0115594 024.6907 096.7305 14.47082821364489"
"2.0","GENERATED VIA SPACE-TRACK.ORG API","2020-12-07T17:48:54","18 SPCS","ORBCOMM FM 30","1999-065A","EARTH","TEME","UTC","SGP4","2020-12-07T09:50:17.628000","14.32944846","0.00051220","45.0338","314.7103","27.2069","332.9046","0","U","25980","999","9716","0.00009085800000","0.00000110","0.0000000000000","7160.041","100.492","785.573","778.238","PAYLOAD","MEDIUM","ORB","1999-12-04","AFETR","","2899016","167176391","0 ORBCOMM FM 30","1 25980U 99065A   20342.40992625 +.00000110 +00000-0 +90858-4 0  9997","2 25980 045.0338 314.7103 0005122 027.2069 332.9046 14.32944846097169"
"2.0","GENERATED VIA SPACE-TRACK.ORG API","2020-12-07T17:48:54","18 SPCS","CZ-4 DEB","1999-057SK","EARTH","TEME","UTC","SGP4","2020-12-07T07:32:49.438176","14.47081724","0.01156220","98.6947","1.6356","26.4343","345.3181","0","U","35331","999","36440","0.00028404000000","0.00001073","0.0000000000000","7113.332","99.510","817.443","652.952","DEBRIS","SMALL","PRC","1999-10-14","TSC","","2899016","167183245","0 CZ-4 DEB","1 35331U 99057SK  20342.31446109 +.00001073 +00000-0 +28404-3 0  9996","2 35331 098.6947 001.6356 0115622 026.4343 345.3181 14.47081724364400"
"2.0","GENERATED VIA SPACE-TRACK.ORG API","2020-12-07T17:43:35","18 SPCS","ORBCOMM FM 30","1999-065A","EARTH","TEME","UTC","SGP4","2020-12-07T04:49:06.407904","14.32944754","0.00051280","45.0338","315.6933","26.0838","334.0266","0","U","25980","999","9713","0.00009069400000","0.00000109","0.0000000000000","7160.041","100.492","785.578","778.234","PAYLOAD","MEDIUM","ORB","1999-12-04","AFETR","","2899013","167155377","0 ORBCOMM FM 30","1 25980U 99065A   20342.20076861  .00000109  00000-0  90694-4 0  9996","2 25980  45.0338 315.6933 0005128  26.0838 334.0266 14.32944754 97139"
